<?xml version="1.0" encoding="UTF-8"?>
<ndm xmlns:xsi="http://www.w3.org/2001/XMLSchema-instance" xsi:noNamespaceSchemaLocation="https://sanaregistry.org/r/ndmxml_unqualified/ndmxml-2.0.0-master-2.0.xsd">
<omm id="CCSDS_OMM_VERS" version="2.0">
<header><CREATION_DATE/><ORIGINATOR/></header><body><segment><metadata><OBJECT_NAME>IRIDIUM 171</OBJECT_NAME><OBJECT_ID>2019-002H</OBJECT_ID><CENTER_NAME>EARTH</CENTER_NAME><REF_FRAME>TEME</REF_FRAME><TIME_SYSTEM>UTC</TIME_SYSTEM><MEAN_ELEMENT_THEORY>SGP4</MEAN_ELEMENT_THEORY></metadata><data><meanElements><EPOCH>2024-11-28T14:49:30.368640</EPOCH><MEAN_MOTION>14.34218755</MEAN_MOTION><ECCENTRICITY>.0001694</ECCENTRICITY><INCLINATION>86.4005</INCLINATION><RA_OF_ASC_NODE>230.1267</RA_OF_ASC_NODE><ARG_OF_PERICENTER>80.8964</ARG_OF_PERICENTER><MEAN_ANOMALY>279.2423</MEAN_ANOMALY></meanElements><tleParameters><EPHEMERIS_TYPE>0</EPHEMERIS_TYPE><CLASSIFICATION_TYPE>U</CLASSIFICATION_TYPE><NORAD_CAT_ID>43929</NORAD_CAT_ID><ELEMENT_SET_NO>999</ELEMENT_SET_NO><REV_AT_EPOCH>30789</REV_AT_EPOCH><BSTAR>.29889E-3</BSTAR><MEAN_MOTION_DOT>.857E-5</MEAN_MOTION_DOT><MEAN_MOTION_DDOT>0</MEAN_MOTION_DDOT></tleParameters></data></segment></body></omm>
<omm id="CCSDS_OMM_VERS" version="2.0">
<header><CREATION_DATE/><ORIGINATOR/></header><body><segment><metadata><OBJECT_NAME>IRIDIUM 170</OBJECT_NAME><OBJECT_ID>2019-002J</OBJECT_ID><CENTER_NAME>EARTH</CENTER_NAME><REF_FRAME>TEME</REF_FRAME><TIME_SYSTEM>UTC</TIME_SYSTEM><MEAN_ELEMENT_THEORY>SGP4</MEAN_ELEMENT_THEORY></metadata><data><meanElements><EPOCH>2024-11-28T19:26:06.327744</EPOCH><MEAN_MOTION>14.72248043</MEAN_MOTION><ECCENTRICITY>.0002437</ECCENTRICITY><INCLINATION>86.6127</INCLINATION><RA_OF_ASC_NODE>229.8370</RA_OF_ASC_NODE><ARG_OF_PERICENTER>84.3860</ARG_OF_PERICENTER><MEAN_ANOMALY>275.7635</MEAN_ANOMALY></meanElements><tleParameters><EPHEMERIS_TYPE>0</EPHEMERIS_TYPE><CLASSIFICATION_TYPE>U</CLASSIFICATION_TYPE><NORAD_CAT_ID>43930</NORAD_CAT_ID><ELEMENT_SET_NO>999</ELEMENT_SET_NO><REV_AT_EPOCH>31607</REV_AT_EPOCH><BSTAR>.53958E-3</BSTAR><MEAN_MOTION_DOT>.3428E-4</MEAN_MOTION_DOT><MEAN_MOTION_DDOT>0</MEAN_MOTION_DDOT></tleParameters></data></segment></body></omm>
<omm id="CCSDS_OMM_VERS" version="2.0">
<header><CREATION_DATE/><ORIGINATOR/></header><body><segment><metadata><OBJECT_NAME>IRIDIUM 167</OBJECT_NAME><OBJECT_ID>2019-002K</OBJECT_ID><CENTER_NAME>EARTH</CENTER_NAME><REF_FRAME>TEME</REF_FRAME><TIME_SYSTEM>UTC</TIME_SYSTEM><MEAN_ELEMENT_THEORY>SGP4</MEAN_ELEMENT_THEORY></metadata><data><meanElements><EPOCH>2024-11-28T11:19:26.902560</EPOCH><MEAN_MOTION>14.34217708</MEAN_MOTION><ECCENTRICITY>.0001927</ECCENTRICITY><INCLINATION>86.3997</INCLINATION><RA_OF_ASC_NODE>229.9618</RA_OF_ASC_NODE><ARG_OF_PERICENTER>72.3709</ARG_OF_PERICENTER><MEAN_ANOMALY>287.7697</MEAN_ANOMALY></meanElements><tleParameters><EPHEMERIS_TYPE>0</EPHEMERIS_TYPE><CLASSIFICATION_TYPE>U</CLASSIFICATION_TYPE><NORAD_CAT_ID>43931</NORAD_CAT_ID><ELEMENT_SET_NO>999</ELEMENT_SET_NO><REV_AT_EPOCH>30787</REV_AT_EPOCH><BSTAR>.62516E-5</BSTAR><MEAN_MOTION_DOT>.37E-6</MEAN_MOTION_DOT><MEAN_MOTION_DDOT>0</MEAN_MOTION_DDOT></tleParameters></data></segment></body></omm>
<omm id="CCSDS_OMM_VERS" version="2.0">
<header><CREATION_DATE/><ORIGINATOR/></header><body><segment><metadata><OBJECT_NAME>IRIDIUM 181</OBJECT_NAME><OBJECT_ID>2023-068S</OBJECT_ID><CENTER_NAME>EARTH</CENTER_NAME><REF_FRAME>TEME</REF_FRAME><TIME_SYSTEM>UTC</TIME_SYSTEM><MEAN_ELEMENT_THEORY>SGP4</MEAN_ELEMENT_THEORY></metadata><data><meanElements><EPOCH>2024-11-28T20:56:29.150304</EPOCH><MEAN_MOTION>14.43583630</MEAN_MOTION><ECCENTRICITY>.000196</ECCENTRICITY><INCLINATION>86.8599</INCLINATION><RA_OF_ASC_NODE>291.5258</RA_OF_ASC_NODE><ARG_OF_PERICENTER>81.7748</ARG_OF_PERICENTER><MEAN_ANOMALY>278.3676</MEAN_ANOMALY></meanElements><tleParameters><EPHEMERIS_TYPE>0</EPHEMERIS_TYPE><CLASSIFICATION_TYPE>U</CLASSIFICATION_TYPE><NORAD_CAT_ID>56726</NORAD_CAT_ID><ELEMENT_SET_NO>999</ELEMENT_SET_NO><REV_AT_EPOCH>8089</REV_AT_EPOCH><BSTAR>.35681E-3</BSTAR><MEAN_MOTION_DOT>.1228E-4</MEAN_MOTION_DOT><MEAN_MOTION_DDOT>0</MEAN_MOTION_DDOT></tleParameters></data></segment></body></omm>
<omm id="CCSDS_OMM_VERS" version="2.0">
<header><CREATION_DATE/><ORIGINATOR/></header><body><segment><metadata><OBJECT_NAME>IRIDIUM 177</OBJECT_NAME><OBJECT_ID>2023-068T</OBJECT_ID><CENTER_NAME>EARTH</CENTER_NAME><REF_FRAME>TEME</REF_FRAME><TIME_SYSTEM>UTC</TIME_SYSTEM><MEAN_ELEMENT_THEORY>SGP4</MEAN_ELEMENT_THEORY></metadata><data><meanElements><EPOCH>2024-11-28T16:47:55.302432</EPOCH><MEAN_MOTION>14.80221974</MEAN_MOTION><ECCENTRICITY>.0002202</ECCENTRICITY><INCLINATION>86.1995</INCLINATION><RA_OF_ASC_NODE>237.2239</RA_OF_ASC_NODE><ARG_OF_PERICENTER>77.2348</ARG_OF_PERICENTER><MEAN_ANOMALY>282.9119</MEAN_ANOMALY></meanElements><tleParameters><EPHEMERIS_TYPE>0</EPHEMERIS_TYPE><CLASSIFICATION_TYPE>U</CLASSIFICATION_TYPE><NORAD_CAT_ID>56727</NORAD_CAT_ID><ELEMENT_SET_NO>999</ELEMENT_SET_NO><REV_AT_EPOCH>8271</REV_AT_EPOCH><BSTAR>.65068E-3</BSTAR><MEAN_MOTION_DOT>.4971E-4</MEAN_MOTION_DOT><MEAN_MOTION_DDOT>0</MEAN_MOTION_DDOT></tleParameters></data></segment></body></omm>
<omm id="CCSDS_OMM_VERS" version="2.0">
<header><CREATION_DATE/><ORIGINATOR/></header><body><segment><metadata><OBJECT_NAME>IRIDIUM 174</OBJECT_NAME><OBJECT_ID>2023-068U</OBJECT_ID><CENTER_NAME>EARTH</CENTER_NAME><REF_FRAME>TEME</REF_FRAME><TIME_SYSTEM>UTC</TIME_SYSTEM><MEAN_ELEMENT_THEORY>SGP4</MEAN_ELEMENT_THEORY></metadata><data><meanElements><EPOCH>2024-11-28T16:40:05.654496</EPOCH><MEAN_MOTION>14.80220643</MEAN_MOTION><ECCENTRICITY>.0002254</ECCENTRICITY><INCLINATION>86.2001</INCLINATION><RA_OF_ASC_NODE>237.3433</RA_OF_ASC_NODE><ARG_OF_PERICENTER>88.9528</ARG_OF_PERICENTER><MEAN_ANOMALY>271.1952</MEAN_ANOMALY></meanElements><tleParameters><EPHEMERIS_TYPE>0</EPHEMERIS_TYPE><CLASSIFICATION_TYPE>U</CLASSIFICATION_TYPE><NORAD_CAT_ID>56728</NORAD_CAT_ID><ELEMENT_SET_NO>999</ELEMENT_SET_NO><REV_AT_EPOCH>8271</REV_AT_EPOCH><BSTAR>.68238E-3</BSTAR><MEAN_MOTION_DOT>.5212E-4</MEAN_MOTION_DOT><MEAN_MOTION_DDOT>0</MEAN_MOTION_DDOT></tleParameters></data></segment></body></omm>
<omm id="CCSDS_OMM_VERS" version="2.0">
<header><CREATION_DATE/><ORIGINATOR/></header><body><segment><metadata><OBJECT_NAME>IRIDIUM 178</OBJECT_NAME><OBJECT_ID>2023-068V</OBJECT_ID><CENTER_NAME>EARTH</CENTER_NAME><REF_FRAME>TEME</REF_FRAME><TIME_SYSTEM>UTC</TIME_SYSTEM><MEAN_ELEMENT_THEORY>SGP4</MEAN_ELEMENT_THEORY></metadata><data><meanElements><EPOCH>2024-11-28T18:09:38.423808</EPOCH><MEAN_MOTION>14.80221641</MEAN_MOTION><ECCENTRICITY>.0001899</ECCENTRICITY><INCLINATION>86.5774</INCLINATION><RA_OF_ASC_NODE>262.5683</RA_OF_ASC_NODE><ARG_OF_PERICENTER>77.4904</ARG_OF_PERICENTER><MEAN_ANOMALY>282.6530</MEAN_ANOMALY></meanElements><tleParameters><EPHEMERIS_TYPE>0</EPHEMERIS_TYPE><CLASSIFICATION_TYPE>U</CLASSIFICATION_TYPE><NORAD_CAT_ID>56729</NORAD_CAT_ID><ELEMENT_SET_NO>999</ELEMENT_SET_NO><REV_AT_EPOCH>8272</REV_AT_EPOCH><BSTAR>.17956E-3</BSTAR><MEAN_MOTION_DOT>.139E-4</MEAN_MOTION_DOT><MEAN_MOTION_DDOT>0</MEAN_MOTION_DDOT></tleParameters></data></segment></body></omm>
<omm id="CCSDS_OMM_VERS" version="2.0">
<header><CREATION_DATE/><ORIGINATOR/></header><body><segment><metadata><OBJECT_NAME>IRIDIUM 179</OBJECT_NAME><OBJECT_ID>2023-068W</OBJECT_ID><CENTER_NAME>EARTH</CENTER_NAME><REF_FRAME>TEME</REF_FRAME><TIME_SYSTEM>UTC</TIME_SYSTEM><MEAN_ELEMENT_THEORY>SGP4</MEAN_ELEMENT_THEORY></metadata><data><meanElements><EPOCH>2024-11-28T19:39:14.991264</EPOCH><MEAN_MOTION>14.80246311</MEAN_MOTION><ECCENTRICITY>.0002745</ECCENTRICITY><INCLINATION>86.6786</INCLINATION><RA_OF_ASC_NODE>268.7509</RA_OF_ASC_NODE><ARG_OF_PERICENTER>85.1077</ARG_OF_PERICENTER><MEAN_ANOMALY>275.0458</MEAN_ANOMALY></meanElements><tleParameters><EPHEMERIS_TYPE>0</EPHEMERIS_TYPE><CLASSIFICATION_TYPE>U</CLASSIFICATION_TYPE><NORAD_CAT_ID>56730</NORAD_CAT_ID><ELEMENT_SET_NO>999</ELEMENT_SET_NO><REV_AT_EPOCH>8273</REV_AT_EPOCH><BSTAR>.80405E-3</BSTAR><MEAN_MOTION_DOT>.6141E-4</MEAN_MOTION_DOT><MEAN_MOTION_DDOT>0</MEAN_MOTION_DDOT></tleParameters></data></segment></body></omm>
</ndm>
