IRIDIUM 171             
1 43929U 19002H   24333.61771260  .00000857  00000+0  29889-3 0  9992
2 43929  86.4005 230.1267 0001694  80.8964 279.2423 14.34218755307894
IRIDIUM 170             
1 43930U 19002J   24333.80979546  .00003428  00000+0  53958-3 0  9993
2 43930  86.6127 229.8370 0002437  84.3860 275.7635 14.72248043316074
IRIDIUM 167             
1 43931U 19002K   24333.47183915  .00000037  00000+0  62516-5 0  9999
2 43931  86.3997 229.9618 0001927  72.3709 287.7697 14.34217708307876
IRIDIUM 181             
1 56726U 23068S   24333.87255961  .00001228  00000+0  35681-3 0  9991
2 56726  86.8599 291.5258 0001960  81.7748 278.3676 14.43583630 80897
IRIDIUM 177             
1 56727U 23068T   24333.69994563  .00004971  00000+0  65068-3 0  9990
2 56727  86.1995 237.2239 0002202  77.2348 282.9119 14.80221974 82710
IRIDIUM 174             
1 56728U 23068U   24333.69450989  .00005212  00000+0  68238-3 0  9991
2 56728  86.2001 237.3433 0002254  88.9528 271.1952 14.80220643 82710
IRIDIUM 178             
1 56729U 23068V   24333.75669472  .00001390  00000+0  17956-3 0  9992
2 56729  86.5774 262.5683 0001899  77.4904 282.6530 14.80221641 82722
IRIDIUM 179             
1 56730U 23068W   24333.81892351  .00006141  00000+0  80405-3 0  9993
2 56730  86.6786 268.7509 0002745  85.1077 275.0458 14.80246311 82738
